STARLINK-3821           
1 52357U 22045AC  26068.68156905 -.00000206  00000+0  51385-5 0  9992
2 52357  53.2184 199.1592 0001362  88.9392 271.1756 15.08837718215784
PRSC-S1                 
1 65055U 25164A   26068.60758212  .00007316  00000+0  46631-3 0  9991
2 65055  41.1290 129.3637 0004466 348.3012  11.7698 15.08919510 33403
